[{"OBJECT_NAME":"STARLINK-5972","OBJECT_ID":"2023-058AX","EPOCH":"2026-03-09T22:26:50.453952","MEAN_MOTION":15.05630926,"ECCENTRICITY":0.00018776,"INCLINATION":97.6041,"RA_OF_ASC_NODE":71.4638,"ARG_OF_PERICENTER":95.6991,"MEAN_ANOMALY":264.445,"EPHEMERIS_TYPE":0,"CLASSIFICATION_TYPE":"U","NORAD_CAT_ID":56362,"ELEMENT_SET_NO":999,"REV_AT_EPOCH":15823,"BSTAR":-0.00010329263,"MEAN_MOTION_DOT":-1.55e-5,"MEAN_MOTION_DDOT":0},{"OBJECT_NAME":"COSMOS 2251 DEB","OBJECT_ID":"1993-036AUM","EPOCH":"2026-03-08T12:34:22.155456","MEAN_MOTION":14.96324912,"ECCENTRICITY":0.00809203,"INCLINATION":73.9894,"RA_OF_ASC_NODE":123.8265,"ARG_OF_PERICENTER":247.0296,"MEAN_ANOMALY":179.8153,"EPHEMERIS_TYPE":0,"CLASSIFICATION_TYPE":"U","NORAD_CAT_ID":35898,"ELEMENT_SET_NO":999,"REV_AT_EPOCH":68092,"BSTAR":0.00097608609,"MEAN_MOTION_DOT":0.00011776,"MEAN_MOTION_DDOT":0}]
